KUIPER-00008            
1 63724U 25088A   25210.25002315 -.00136585  00000+0 -11019-1 0  9995
2 63724  51.8924  25.5797 0011796  71.3231 183.2367 15.00055405 14537
KUIPER-00009            
1 63725U 25088B   25210.25002315 -.00613623  00000+0 -34604-1 0  9994
2 63725  51.8806  19.3862 0011418  97.6488 348.0189 15.15144811 14626
KUIPER-00010            
1 63726U 25088C   25209.63716006  .00011966  00000+0  34551-3 0  9997
2 63726  51.8644  20.7837 0009741  81.4175 278.7915 15.36053061 14170
KUIPER-00011            
1 63727U 25088D   25209.46934508  .00011673  00000+0  34283-3 0  9995
2 63727  51.8597  21.8451 0011237  88.5924 271.6348 15.35529864 14287
KUIPER-00012            
1 63728U 25088E   25209.46742100  .00011567  00000+0  33813-3 0  9991
2 63728  51.8586  21.8213 0011472  89.1404 271.0896 15.35684173 14235
KUIPER-00013            
1 63729U 25088F   25210.25002315 -.01434156  00000+0 -83175-1 0  9998
2 63729  51.8808  20.0190 0006810  44.5190  90.6267 15.14774275 14423
KUIPER-00014            
1 63730U 25088G   25210.25002315  .00019776  00000+0  11438-2 0  9998
2 63730  51.8810  21.0052 0009620  82.9382 334.0503 15.12220226 14223
KUIPER-00015            
1 63731U 25088H   25210.16668981 -.00095401  00000+0 -10738-1 0  9998
2 63731  51.8943  30.0052 0012601  62.6847 258.6098 14.86673464 14546
